SKYSAT-C4               
1 41771U 16058B   26176.99023609  .00019440  00000+0  36233-3 0  9997
2 41771  96.9173 198.3940 0002026 140.4009 219.7391 15.48851382546832
SKYSAT-C5               
1 41772U 16058C   26177.10281721  .00008599  00000+0  25877-3 0  9998
2 41772  97.0470 217.3453 0001154 225.8248 134.2902 15.34589464545113
SKYSAT-C2               
1 41773U 16058D   26177.01908788  .00013945  00000+0  32596-3 0  9995
2 41773  97.0169 198.7820 0003924  51.2857 308.8741 15.42261578546419
SKYSAT-C3               
1 41774U 16058E   26176.58591493  .00026959  00000+0  43484-3 0  9995
2 41774  96.9009 207.1097 0001259 117.9292 242.2090 15.52881901547412
ALSAT-1B                
1 41785U 16059C   26177.21133049  .00000651  00000+0  11044-3 0  9996
2 41785  97.7752 185.5857 0008790 188.1683 171.9383 14.72282068521901
PATHFINDER 1            
1 41787U 16059E   26176.99950253  .00000544  00000+0  10328-3 0  9991
2 41787  97.8166 175.8781 0028536 175.2089 184.9395 14.67672090521008
SCATSAT 1               
1 41790U 16059H   26176.66702441  .00001146  00000+0  15703-3 0  9994
2 41790  98.1188 240.5207 0053771 219.5991 140.1288 14.79542742102841
GOKTURK 1A              
1 41875U 16073A   26177.13824060  .00000497  00000+0  10667-3 0  9991
2 41875  98.1244  71.6722 0001431  77.5697 282.5665 14.62780749510132
RESOURCESAT-2A          
1 41877U 16074A   26177.22046431 -.00000064  00000+0 -91144-5 0  9995
2 41877  98.7527 250.6511 0003214  66.4946 293.6569 14.21618588495587
CARTOSAT-2D             
1 41948U 17008A   26177.18188225  .00006294  00000+0  30153-3 0  9995
2 41948  97.4105 236.3200 0004634 197.6124 162.4951 15.19272122518944
SENTINEL-2B             
1 42063U 17013A   26177.15853693  .00000184  00000+0  86808-4 0  9996
2 42063  98.5692 251.8065 0001185  87.7101 272.4218 14.30819644485926
CARTOSAT-2E             
1 42767U 17036C   26177.19954846  .00004697  00000+0  22619-3 0  9990
2 42767  97.4274 236.8535 0002174 276.7896  83.3091 15.19231348499511
FORMOSAT-5              
1 42920U 17049A   26177.15605051  .00000139  00000+0  46205-4 0  9997
2 42920  98.2252 252.2665 0012460  59.4438 300.7985 14.50901768467977
SENTINEL-5P             
1 42969U 17064A   26176.80116920  .00000035  00000+0  37427-4 0  9991
2 42969  98.7925 118.8713 0001019  89.4231 270.7061 14.19520277450784
SKYSAT-C11              
1 42987U 17068A   26176.92012277  .00029690  00000+0  39214-3 0  9991
2 42987  97.4352 326.1337 0000485 126.6311 233.4989 15.58327902484606
SKYSAT-C10              
1 42988U 17068B   26176.89893700  .00010105  00000+0  30207-3 0  9990
2 42988  97.4509 313.8319 0001136 104.8493 255.2876 15.34774915483696
SKYSAT-C9               
1 42989U 17068C   26176.93656964  .00014703  00000+0  34895-3 0  9990
2 42989  97.4429 314.8886 0009577 105.8215 254.4089 15.41765303484101
SKYSAT-C8               
1 42990U 17068D   26176.92209573  .00012232  00000+0  33861-3 0  9998
2 42990  97.4526 313.6885 0001357  95.4716 264.6683 15.37136157483651
SKYSAT-C7               
1 42991U 17068E   26176.91598914  .00012092  00000+0  33502-3 0  9994
2 42991  97.4535 314.6722 0007086  81.3010 278.9036 15.37088429483714
SKYSAT-C6               
1 42992U 17068F   26176.95193597  .00010287  00000+0  31392-3 0  9996
2 42992  97.4571 314.6448 0005160 126.8739 233.2977 15.34104853483663
CARTOSAT-2F             
1 43111U 18004A   26177.16598591  .00005851  00000+0  28059-3 0  9995
2 43111  97.4790 236.7129 0001565 172.7085 187.4172 15.19282141468692
GAOFEN-1 02             
1 43259U 18031A   26177.17654855  .00000501  00000+0  79541-4 0  9995
2 43259  98.0527 239.6784 0003022   8.4137 351.7123 14.76418980444029
GAOFEN-1 03             
1 43260U 18031B   26177.22236267  .00000113  00000+0  23680-4 0  9998
2 43260  98.0514 239.5817 0003646  61.2710 298.8866 14.76436604444027
GAOFEN-1 04             
1 43262U 18031D   26177.19817468  .00000729  00000+0  11223-3 0  9996
2 43262  98.0527 239.7492 0002018  67.1034 293.0388 14.76445242444013
SENTINEL-3B             
1 43437U 18039A   26177.16633786  .00000100  00000+0  59426-4 0  9995
2 43437  98.6245 244.5697 0000746 106.5993 253.5269 14.26737139425404
GAOFEN-5 01             
1 43461U 18043A   26177.17289363  .00000339  00000+0  79857-4 0  9990
2 43461  98.4574 148.9479 0002918  67.8367 292.3142 14.60611347433002
GAOFEN-6                
1 43484U 18048A   26176.81301529  .00000286  00000+0  48573-4 0  9991
2 43484  98.0567 239.4730 0011702 138.2342 221.9762 14.76423510434667
GAOFEN-11 01            
1 43585U 18063A   26177.18020097  .00019328  00000+0  28383-3 0  9992
2 43585  97.1290 244.0353 0002216 313.7814  46.3257 15.55537581441746
ICESAT-2                
1 43613U 18070A   26177.12544589  .00011232  00000+0  40880-3 0  9995
2 43613  92.0081 293.3938 0006231  98.8680 261.3275 15.28177760433827
HYSIS                   
1 43719U 18096A   26177.14408142  .00001170  00000+0  16682-3 0  9999
2 43719  97.9839 243.8220 0001830  94.4630 265.6790 14.78632868408741
KAZSTSAT                
1 43783U 18099AB  26176.63687970  .00001899  00000+0  15753-3 0  9990
2 43783  97.4285 208.1817 0008589  46.7589 313.4351 14.99894182412572
